[{"OBJECT_NAME":"BRO-18","OBJECT_ID":"2025-135Y","EPOCH":"2026-03-09T22:42:21.749184","MEAN_MOTION":15.2098794,"ECCENTRICITY":0.00011227,"INCLINATION":97.4502,"RA_OF_ASC_NODE":184.8927,"ARG_OF_PERICENTER":149.5885,"MEAN_ANOMALY":210.5415,"EPHEMERIS_TYPE":0,"CLASSIFICATION_TYPE":"U","NORAD_CAT_ID":64550,"ELEMENT_SET_NO":999,"REV_AT_EPOCH":3978,"BSTAR":0.00031729541,"MEAN_MOTION_DOT":6.966e-5,"MEAN_MOTION_DDOT":0},{"OBJECT_NAME":"OBJECT AC","OBJECT_ID":"2025-313AC","EPOCH":"2026-03-09T21:09:33.957792","MEAN_MOTION":15.21172944,"ECCENTRICITY":0.00146625,"INCLINATION":97.3999,"RA_OF_ASC_NODE":145.117,"ARG_OF_PERICENTER":358.5779,"MEAN_ANOMALY":1.5413,"EPHEMERIS_TYPE":0,"CLASSIFICATION_TYPE":"U","NORAD_CAT_ID":67274,"ELEMENT_SET_NO":999,"REV_AT_EPOCH":1084,"BSTAR":0.00041099794,"MEAN_MOTION_DOT":9.12e-5,"MEAN_MOTION_DDOT":0}]
